{
  "links" : {
    "next" : "https://api.nasa.gov/neo/rest/v1/feed?start_date=2009-10-09&end_date=2009-10-09&detailed=true&api_key=t0TVs3DtDT2H8Oy2Zy8m2eVrNsAVKAexjcZXUckd",
    "prev" : "https://api.nasa.gov/neo/rest/v1/feed?start_date=2009-10-07&end_date=2009-10-07&detailed=true&api_key=t0TVs3DtDT2H8Oy2Zy8m2eVrNsAVKAexjcZXUckd",
    "self" : "https://api.nasa.gov/neo/rest/v1/feed?start_date=2009-10-08&end_date=2009-10-08&detailed=true&api_key=t0TVs3DtDT2H8Oy2Zy8m2eVrNsAVKAexjcZXUckd"
  },
  "element_count" : 11,
  "near_earth_objects" : {
    "2009-10-08" : [ {
      "links" : {
        "self" : "https://api.nasa.gov/neo/rest/v1/neo/3758270?api_key=t0TVs3DtDT2H8Oy2Zy8m2eVrNsAVKAexjcZXUckd"
      },
      "neo_reference_id" : "3758270",
      "name" : "(2016 QE45)",
      "nasa_jpl_url" : "http://ssd.jpl.nasa.gov/sbdb.cgi?sstr=3758270",
      "absolute_magnitude_h" : 21.7,
      "estimated_diameter" : {
        "kilometers" : {
          "estimated_diameter_min" : 0.1214940408,
          "estimated_diameter_max" : 0.2716689341
        },
        "meters" : {
          "estimated_diameter_min" : 121.4940407996,
          "estimated_diameter_max" : 271.6689340891
        },
        "miles" : {
          "estimated_diameter_min" : 0.0754928736,
          "estimated_diameter_max" : 0.1688071972
        },
        "feet" : {
          "estimated_diameter_min" : 398.6025088171,
          "estimated_diameter_max" : 891.3023057169
        }
      },
      "is_potentially_hazardous_asteroid" : true,
      "close_approach_data" : [ {
        "close_approach_date" : "2009-10-08",
        "epoch_date_close_approach" : 1254985200000,
        "relative_velocity" : {
          "kilometers_per_second" : "15.9435710326",
          "kilometers_per_hour" : "57396.8557174554",
          "miles_per_hour" : "35664.1740428822"
        },
        "miss_distance" : {
          "astronomical" : "0.0066216662",
          "lunar" : "2.5758280754",
          "kilometers" : "990587.1875",
          "miles" : "615522.3125"
        },
        "orbiting_body" : "Earth"
      } ],
      "orbital_data" : {
        "orbit_id" : "12",
        "orbit_determination_date" : "2017-04-06 08:24:18",
        "orbit_uncertainty" : "6",
        "minimum_orbit_intersection" : ".00642857",
        "jupiter_tisserand_invariant" : "4.981",
        "epoch_osculation" : "2458000.5",
        "eccentricity" : ".5258918731311081",
        "semi_major_axis" : "1.254044857262044",
        "inclination" : "4.860638384688071",
        "ascending_node_longitude" : "19.03009343321831",
        "orbital_period" : "512.9417322745879",
        "perihelion_distance" : ".5945528582860745",
        "perihelion_argument" : "95.65268973588033",
        "aphelion_distance" : "1.913536856238013",
        "perihelion_time" : "2458246.137293277400",
        "mean_anomaly" : "187.6033708785347",
        "mean_motion" : ".701834101903966",
        "equinox" : "J2000"
      }
    }, {
      "links" : {
        "self" : "https://api.nasa.gov/neo/rest/v1/neo/3767316?api_key=t0TVs3DtDT2H8Oy2Zy8m2eVrNsAVKAexjcZXUckd"
      },
      "neo_reference_id" : "3767316",
      "name" : "(2017 BN91)",
      "nasa_jpl_url" : "http://ssd.jpl.nasa.gov/sbdb.cgi?sstr=3767316",
      "absolute_magnitude_h" : 24.4,
      "estimated_diameter" : {
        "kilometers" : {
          "estimated_diameter_min" : 0.0350392641,
          "estimated_diameter_max" : 0.0783501764
        },
        "meters" : {
          "estimated_diameter_min" : 35.0392641108,
          "estimated_diameter_max" : 78.3501764334
        },
        "miles" : {
          "estimated_diameter_min" : 0.0217723826,
          "estimated_diameter_max" : 0.0486845275
        },
        "feet" : {
          "estimated_diameter_min" : 114.9582192654,
          "estimated_diameter_max" : 257.0543928497
        }
      },
      "is_potentially_hazardous_asteroid" : false,
      "close_approach_data" : [ {
        "close_approach_date" : "2009-10-08",
        "epoch_date_close_approach" : 1254985200000,
        "relative_velocity" : {
          "kilometers_per_second" : "14.9364833798",
          "kilometers_per_hour" : "53771.3401674236",
          "miles_per_hour" : "33411.4196723639"
        },
        "miss_distance" : {
          "astronomical" : "0.3798611201",
          "lunar" : "147.7659759521",
          "kilometers" : "56826416",
          "miles" : "35310296"
        },
        "orbiting_body" : "Earth"
      } ],
      "orbital_data" : {
        "orbit_id" : "4",
        "orbit_determination_date" : "2017-04-06 08:20:31",
        "orbit_uncertainty" : "6",
        "minimum_orbit_intersection" : ".0911387",
        "jupiter_tisserand_invariant" : "4.546",
        "epoch_osculation" : "2458000.5",
        "eccentricity" : ".326285683860986",
        "semi_major_axis" : "1.458014694548325",
        "inclination" : "12.56701875577664",
        "ascending_node_longitude" : "135.4453452905837",
        "orbital_period" : "643.0448707193472",
        "perihelion_distance" : ".9822853728582579",
        "perihelion_argument" : "301.4467735624661",
        "aphelion_distance" : "1.933744016238391",
        "perihelion_time" : "2457726.001073175764",
        "mean_anomaly" : "153.67452281546",
        "mean_motion" : ".5598365159141743",
        "equinox" : "J2000"
      }
    } ]
  }
}